{"fetched_at":"2026-07-19T07:05:13.019Z","source":"https://celestrak.org/NORAD/elements/gp.php?NAME=HAWK&FORMAT=JSON","constellation":"hawkeye-360","records":[{"OBJECT_NAME":"HAWK-12A","OBJECT_ID":"2025-138C","EPOCH":"2026-07-18T11:29:05.385120","CLASSIFICATION_TYPE":"U","MEAN_MOTION":15.18416762,"ECCENTRICITY":0.00148086,"INCLINATION":97.4415,"RA_OF_ASC_NODE":201.7439,"ARG_OF_PERICENTER":36.0203,"MEAN_ANOMALY":324.2026,"EPHEMERIS_TYPE":0,"NORAD_CAT_ID":64623,"ELEMENT_SET_NO":999,"REV_AT_EPOCH":5861,"BSTAR":0.00010311588,"MEAN_MOTION_DOT":0.00002059,"MEAN_MOTION_DDOT":0},{"OBJECT_NAME":"HAWK-13A","OBJECT_ID":"2026-004AF","EPOCH":"2026-07-17T22:51:54.512064","CLASSIFICATION_TYPE":"U","MEAN_MOTION":15.19370883,"ECCENTRICITY":0.00044111,"INCLINATION":97.4448,"RA_OF_ASC_NODE":197.3875,"ARG_OF_PERICENTER":206.9655,"MEAN_ANOMALY":153.1351,"EPHEMERIS_TYPE":0,"NORAD_CAT_ID":67392,"ELEMENT_SET_NO":999,"REV_AT_EPOCH":2843,"BSTAR":0.00011028308,"MEAN_MOTION_DOT":0.00002264,"MEAN_MOTION_DDOT":0},{"OBJECT_NAME":"HAWK-13C","OBJECT_ID":"2026-004AG","EPOCH":"2026-07-18T06:45:53.105760","CLASSIFICATION_TYPE":"U","MEAN_MOTION":15.19368404,"ECCENTRICITY":0.00042575,"INCLINATION":97.4595,"RA_OF_ASC_NODE":198.1426,"ARG_OF_PERICENTER":209.2371,"MEAN_ANOMALY":150.8626,"EPHEMERIS_TYPE":0,"NORAD_CAT_ID":67393,"ELEMENT_SET_NO":999,"REV_AT_EPOCH":2848,"BSTAR":0.00010649226,"MEAN_MOTION_DOT":0.00002184,"MEAN_MOTION_DDOT":0},{"OBJECT_NAME":"HAWK-13B","OBJECT_ID":"2026-004AK","EPOCH":"2026-07-18T19:24:26.598816","CLASSIFICATION_TYPE":"U","MEAN_MOTION":15.19373366,"ECCENTRICITY":0.0005568,"INCLINATION":97.4536,"RA_OF_ASC_NODE":198.4833,"ARG_OF_PERICENTER":209.1669,"MEAN_ANOMALY":150.9256,"EPHEMERIS_TYPE":0,"NORAD_CAT_ID":67396,"ELEMENT_SET_NO":999,"REV_AT_EPOCH":2856,"BSTAR":0.00011075,"MEAN_MOTION_DOT":0.00002274,"MEAN_MOTION_DDOT":0},{"OBJECT_NAME":"HAWK-14B","OBJECT_ID":"2026-067W","EPOCH":"2026-07-18T18:47:27.930624","CLASSIFICATION_TYPE":"U","MEAN_MOTION":15.18446715,"ECCENTRICITY":0.0001152,"INCLINATION":97.4565,"RA_OF_ASC_NODE":157.785,"ARG_OF_PERICENTER":345.0087,"MEAN_ANOMALY":15.1113,"EPHEMERIS_TYPE":0,"NORAD_CAT_ID":68436,"ELEMENT_SET_NO":999,"REV_AT_EPOCH":1673,"BSTAR":0.00010222,"MEAN_MOTION_DOT":0.00002037,"MEAN_MOTION_DDOT":0},{"OBJECT_NAME":"HAWK-14C","OBJECT_ID":"2026-067AB","EPOCH":"2026-07-18T18:47:37.118400","CLASSIFICATION_TYPE":"U","MEAN_MOTION":15.18444608,"ECCENTRICITY":0.0002223,"INCLINATION":97.4504,"RA_OF_ASC_NODE":157.6625,"ARG_OF_PERICENTER":15.5544,"MEAN_ANOMALY":344.5758,"EPHEMERIS_TYPE":0,"NORAD_CAT_ID":68441,"ELEMENT_SET_NO":999,"REV_AT_EPOCH":1673,"BSTAR":0.00010275,"MEAN_MOTION_DOT":0.00002048,"MEAN_MOTION_DDOT":0},{"OBJECT_NAME":"HAWK-14A","OBJECT_ID":"2026-067AJ","EPOCH":"2026-07-18T07:43:31.219968","CLASSIFICATION_TYPE":"U","MEAN_MOTION":15.18446389,"ECCENTRICITY":0.00029216,"INCLINATION":97.4628,"RA_OF_ASC_NODE":157.4591,"ARG_OF_PERICENTER":5.7157,"MEAN_ANOMALY":354.411,"EPHEMERIS_TYPE":0,"NORAD_CAT_ID":68448,"ELEMENT_SET_NO":999,"REV_AT_EPOCH":1666,"BSTAR":0.00010398623,"MEAN_MOTION_DOT":0.00002074,"MEAN_MOTION_DDOT":0}]}
