HAWK-12A                
1 64623U 25138C   26199.47853455  .00002059  00000+0  10312-3 0  9993
2 64623  97.4415 201.7439 0014808  36.0203 324.2026 15.18416762 58614
HAWK-13A                
1 67392U 26004AF  26198.95271426  .00002264  00000+0  11028-3 0  9999
2 67392  97.4448 197.3875 0004411 206.9655 153.1351 15.19370883 28439
HAWK-13C                
1 67393U 26004AG  26199.28186465  .00002184  00000+0  10649-3 0  9994
2 67393  97.4595 198.1426 0004257 209.2371 150.8626 15.19368404 28483
HAWK-13B                
1 67396U 26004AK  26199.80864119  .00002274  00000+0  11075-3 0  9998
2 67396  97.4536 198.4833 0005568 209.1669 150.9256 15.19373366 28563
HAWK-14B                
1 68436U 26067W   26199.78296216  .00002037  00000+0  10222-3 0  9997
2 68436  97.4565 157.7850 0001152 345.0087  15.1113 15.18446715 16735
HAWK-14C                
1 68441U 26067AB  26199.78306850  .00002048  00000+0  10275-3 0  9999
2 68441  97.4504 157.6625 0002223  15.5544 344.5758 15.18444608 16733
HAWK-14A                
1 68448U 26067AJ  26199.32188912  .00002074  00000+0  10399-3 0  9999
2 68448  97.4628 157.4591 0002921   5.7157 354.4110 15.18446389 16665
